0 THORAD AGENA D DEB
1 05203U 70025KE  13281.69447719  .00000872  00000-0  21775-2 0  4521
2 05203 099.8901 197.0208 0227627 061.9471 003.4906 13.13799124 73944
0 THORAD AGENA D DEB
1 05203U 70025KE  13282.75893659  .00000952  00000-0  23683-2 0  4537
2 05203 099.8902 198.0133 0227729 059.5063 358.0215 13.13800898 74085
0 THORAD AGENA D DEB
1 05203U 70025KE  13286.72015461  .00001037  00000-0  25716-2 0  4551
2 05203 099.8906 201.7068 0228094 050.4359 013.2671 13.13809113 74605
0 THORAD AGENA D DEB
1 05203U 70025KE  13288.26192252  .00001008  00000-0  25007-2 0  4568
2 05203 099.8907 203.1445 0228200 046.9058 105.3440 13.13814487 74805
0 THORAD AGENA D DEB
1 05203U 70025KE  13289.68942427  .00000944  00000-0  23483-2 0  4577
2 05203 099.8907 204.4757 0228288 043.6379 017.0110 13.13816902 74998
0 THORAD AGENA D DEB
1 05203U 70025KE  13290.75459128  .00001107  00000-0  27373-2 0  4583
2 05203 099.8907 205.4690 0228366 041.2028 014.9516 13.13817958 75132
0 THORAD AGENA D DEB
1 05203U 70025KE  13292.29169060  .00001244  00000-0  30633-2 0  4593
2 05203 099.8905 206.9025 0228438 037.6833 085.0120 13.13819725 75337
0 THORAD AGENA D DEB
1 05203U 70025KE  13293.72394777  .00001209  00000-0  29799-2 0  4601
2 05203 099.8905 208.2384 0228522 034.4094 019.1955 13.13823956 75524
0 THORAD AGENA D DEB
1 05203U 70025KE  13295.33696722  .00000972  00000-0  24157-2 0  4615
2 05203 099.8906 209.7427 0228594 030.7279 088.3446 13.13830465 75731
